GLOBALSTAR M094         
1 39074U 13005C   25189.87313632 -.00000117  00000+0 -73749-4 0  9994
2 39074  51.9953 116.0885 0000596  17.4267 342.6620 12.62262836575113
GLOBALSTAR M096         
1 39075U 13005D   25189.88627086 -.00000110  00000+0 -33975-4 0  9997
2 39075  52.0049 164.5794 0000345 334.7335  25.3515 12.62265635574030
GLOBALSTAR M078         
1 39076U 13005E   25189.85991553 -.00000039  00000+0  36119-3 0  9999
2 39076  51.9860 249.1433 0000882 203.1541 156.9286 12.62259683572652
GLOBALSTAR M095         
1 39077U 13005F   25189.72773422 -.00000063  00000+0  22902-3 0  9991
2 39077  51.9786 246.7304 0000423 219.4874 140.5962 12.62268118572495
GLOBALSTAR M087         
1 52888U 22064A   25189.98893072 -.00000095  00000+0  52322-4 0  9998
2 52888  52.0008  27.3751 0001104  94.6928 265.4066 12.63725640148128
